{"fetched_at":"2026-04-04T02:03:33Z","count":15623,"tles":[{"name":"STARLINK-37203","line1":"1 68388U 26063J   26092.75002315 -.01795699  96121-3 -37681-2 0  9999","line2":"2 68388  97.2824 233.5467 0001638  69.2200  91.8635 15.99071903  2327","category":"Starlink"}]}